{
  "type": "FeatureCollection",
  "features": [
    {
      "type": "Feature",
      "properties": {
        "norad_id": 64903,
        "name": "CO3D 1",
        "group": "resource",
        "lat": 48.2860676610289,
        "lon": 65.17147750348961,
        "alt_km": 500.37352035925596,
        "timestamp": "2025-12-23T11:34:47.839955+00:00",
        "meta_object_name": "CO3D 1",
        "meta_object_id": "2025-156E",
        "meta_epoch": "2025-12-22T22:43:40.696320",
        "meta_mean_motion": 15.20203625,
        "meta_eccentricity": 8.93e-05,
        "meta_inclination": 97.4339,
        "meta_ra_of_asc_node": 73.0665,
        "meta_arg_of_pericenter": 76.0215,
        "meta_mean_anomaly": 284.112,
        "meta_ephemeris_type": 0,
        "meta_classification_type": "U",
        "meta_norad_cat_id": 64903,
        "meta_element_set_no": 999,
        "meta_rev_at_epoch": 2275,
        "meta_bstar": 0.0003017122,
        "meta_mean_motion_dot": 6.47e-05,
        "meta_mean_motion_ddot": 0,
        "tle_line1": "1 64903U 25156E   25356.94699880  .00006470  00000+0  30171-3 0  9996",
        "tle_line2": "2 64903  97.4339  73.0665 0000893  76.0215 284.1120 15.20203625 22757"
      },
      "geometry": {
        "type": "Point",
        "coordinates": [
          65.17147750348961,
          48.2860676610289
        ]
      }
    },
    {
      "type": "Feature",
      "properties": {
        "norad_id": 66514,
        "name": "SENTINEL-6B",
        "group": "resource",
        "lat": -43.388480258502625,
        "lon": 115.26687267585162,
        "alt_km": 1338.8801257593514,
        "timestamp": "2025-12-23T11:34:47.839964+00:00",
        "meta_object_name": "SENTINEL-6B",
        "meta_object_id": "2025-264A",
        "meta_epoch": "2025-12-23T02:27:52.422912",
        "meta_mean_motion": 12.8092954,
        "meta_eccentricity": 0.0007889,
        "meta_inclination": 66.0396,
        "meta_ra_of_asc_node": 140.9099,
        "meta_arg_of_pericenter": 269.9741,
        "meta_mean_anomaly": 90.037,
        "meta_ephemeris_type": 0,
        "meta_classification_type": "U",
        "meta_norad_cat_id": 66514,
        "meta_element_set_no": 999,
        "meta_rev_at_epoch": 461,
        "meta_bstar": -1.0381e-05,
        "meta_mean_motion_dot": -6.3e-07,
        "meta_mean_motion_ddot": 0,
        "tle_line1": "1 66514U 25264A   25357.10269008 -.00000063  00000+0 -10381-4 0  9996",
        "tle_line2": "2 66514  66.0396 140.9099 0007889 269.9741  90.0370 12.80929540  4616"
      },
      "geometry": {
        "type": "Point",
        "coordinates": [
          115.26687267585162,
          -43.388480258502625
        ]
      }
    }
  ]
}